<?xml version="1.0" encoding="UTF-8"?>
<ndm xmlns:xsi="http://www.w3.org/2001/XMLSchema-instance" xsi:noNamespaceSchemaLocation="https://sanaregistry.org/r/ndmxml_unqualified/ndmxml-2.0.0-master-2.0.xsd">
<omm id="CCSDS_OMM_VERS" version="2.0">
<header><CREATION_DATE/><ORIGINATOR/></header><body><segment><metadata><OBJECT_NAME>ORBCOMM FM115 [+]</OBJECT_NAME><OBJECT_ID>2015-081H</OBJECT_ID><CENTER_NAME>EARTH</CENTER_NAME><REF_FRAME>TEME</REF_FRAME><TIME_SYSTEM>UTC</TIME_SYSTEM><MEAN_ELEMENT_THEORY>SGP4</MEAN_ELEMENT_THEORY></metadata><data><meanElements><EPOCH>2024-03-03T10:23:45.289248</EPOCH><MEAN_MOTION>14.60415845</MEAN_MOTION><ECCENTRICITY>.0000549</ECCENTRICITY><INCLINATION>46.9983</INCLINATION><RA_OF_ASC_NODE>114.8156</RA_OF_ASC_NODE><ARG_OF_PERICENTER>308.6068</ARG_OF_PERICENTER><MEAN_ANOMALY>51.4769</MEAN_ANOMALY></meanElements><tleParameters><EPHEMERIS_TYPE>0</EPHEMERIS_TYPE><CLASSIFICATION_TYPE>U</CLASSIFICATION_TYPE><NORAD_CAT_ID>41186</NORAD_CAT_ID><ELEMENT_SET_NO>999</ELEMENT_SET_NO><REV_AT_EPOCH>43891</REV_AT_EPOCH><BSTAR>.23305E-3</BSTAR><MEAN_MOTION_DOT>.967E-5</MEAN_MOTION_DOT><MEAN_MOTION_DDOT>0</MEAN_MOTION_DDOT></tleParameters></data></segment></body></omm>
<omm id="CCSDS_OMM_VERS" version="2.0">
<header><CREATION_DATE/><ORIGINATOR/></header><body><segment><metadata><OBJECT_NAME>ORBCOMM FM108 [+]</OBJECT_NAME><OBJECT_ID>2015-081J</OBJECT_ID><CENTER_NAME>EARTH</CENTER_NAME><REF_FRAME>TEME</REF_FRAME><TIME_SYSTEM>UTC</TIME_SYSTEM><MEAN_ELEMENT_THEORY>SGP4</MEAN_ELEMENT_THEORY></metadata><data><meanElements><EPOCH>2024-03-03T10:12:47.624544</EPOCH><MEAN_MOTION>14.56319306</MEAN_MOTION><ECCENTRICITY>.0003067</ECCENTRICITY><INCLINATION>47.0042</INCLINATION><RA_OF_ASC_NODE>167.0112</RA_OF_ASC_NODE><ARG_OF_PERICENTER>294.5945</ARG_OF_PERICENTER><MEAN_ANOMALY>65.4620</MEAN_ANOMALY></meanElements><tleParameters><EPHEMERIS_TYPE>0</EPHEMERIS_TYPE><CLASSIFICATION_TYPE>U</CLASSIFICATION_TYPE><NORAD_CAT_ID>41187</NORAD_CAT_ID><ELEMENT_SET_NO>999</ELEMENT_SET_NO><REV_AT_EPOCH>43813</REV_AT_EPOCH><BSTAR>.28055E-3</BSTAR><MEAN_MOTION_DOT>.1087E-4</MEAN_MOTION_DOT><MEAN_MOTION_DDOT>0</MEAN_MOTION_DDOT></tleParameters></data></segment></body></omm>
<omm id="CCSDS_OMM_VERS" version="2.0">
<header><CREATION_DATE/><ORIGINATOR/></header><body><segment><metadata><OBJECT_NAME>ORBCOMM FM117 [+]</OBJECT_NAME><OBJECT_ID>2015-081K</OBJECT_ID><CENTER_NAME>EARTH</CENTER_NAME><REF_FRAME>TEME</REF_FRAME><TIME_SYSTEM>UTC</TIME_SYSTEM><MEAN_ELEMENT_THEORY>SGP4</MEAN_ELEMENT_THEORY></metadata><data><meanElements><EPOCH>2024-03-03T09:23:44.863008</EPOCH><MEAN_MOTION>14.56322742</MEAN_MOTION><ECCENTRICITY>.0003397</ECCENTRICITY><INCLINATION>47.0004</INCLINATION><RA_OF_ASC_NODE>166.0900</RA_OF_ASC_NODE><ARG_OF_PERICENTER>306.2459</ARG_OF_PERICENTER><MEAN_ANOMALY>53.8112</MEAN_ANOMALY></meanElements><tleParameters><EPHEMERIS_TYPE>0</EPHEMERIS_TYPE><CLASSIFICATION_TYPE>U</CLASSIFICATION_TYPE><NORAD_CAT_ID>41188</NORAD_CAT_ID><ELEMENT_SET_NO>999</ELEMENT_SET_NO><REV_AT_EPOCH>43817</REV_AT_EPOCH><BSTAR>.23338E-3</BSTAR><MEAN_MOTION_DOT>.876E-5</MEAN_MOTION_DOT><MEAN_MOTION_DDOT>0</MEAN_MOTION_DDOT></tleParameters></data></segment></body></omm>
<omm id="CCSDS_OMM_VERS" version="2.0">
<header><CREATION_DATE/><ORIGINATOR/></header><body><segment><metadata><OBJECT_NAME>ORBCOMM FM116 [+]</OBJECT_NAME><OBJECT_ID>2015-081L</OBJECT_ID><CENTER_NAME>EARTH</CENTER_NAME><REF_FRAME>TEME</REF_FRAME><TIME_SYSTEM>UTC</TIME_SYSTEM><MEAN_ELEMENT_THEORY>SGP4</MEAN_ELEMENT_THEORY></metadata><data><meanElements><EPOCH>2024-03-03T05:50:37.988736</EPOCH><MEAN_MOTION>14.56323058</MEAN_MOTION><ECCENTRICITY>.00016</ECCENTRICITY><INCLINATION>47.0004</INCLINATION><RA_OF_ASC_NODE>256.6012</RA_OF_ASC_NODE><ARG_OF_PERICENTER>53.5271</ARG_OF_PERICENTER><MEAN_ANOMALY>306.5761</MEAN_ANOMALY></meanElements><tleParameters><EPHEMERIS_TYPE>0</EPHEMERIS_TYPE><CLASSIFICATION_TYPE>U</CLASSIFICATION_TYPE><NORAD_CAT_ID>41189</NORAD_CAT_ID><ELEMENT_SET_NO>999</ELEMENT_SET_NO><REV_AT_EPOCH>43696</REV_AT_EPOCH><BSTAR>.21596E-3</BSTAR><MEAN_MOTION_DOT>.798E-5</MEAN_MOTION_DOT><MEAN_MOTION_DDOT>0</MEAN_MOTION_DDOT></tleParameters></data></segment></body></omm>
</ndm>
