ORBCOMM FM115 [+]       
1 41186U 15081H   24063.43316307  .00000967  00000+0  23305-3 0  9994
2 41186  46.9983 114.8156 0000549 308.6068  51.4769 14.60415845438911
ORBCOMM FM108 [+]       
1 41187U 15081J   24063.42555121  .00001087  00000+0  28055-3 0  9994
2 41187  47.0042 167.0112 0003067 294.5945  65.4620 14.56319306438132
ORBCOMM FM117 [+]       
1 41188U 15081K   24063.39149147  .00000876  00000+0  23338-3 0  9992
2 41188  47.0004 166.0900 0003397 306.2459  53.8112 14.56322742438171
ORBCOMM FM116 [+]       
1 41189U 15081L   24063.24349524  .00000798  00000+0  21596-3 0  9995
2 41189  47.0004 256.6012 0001600  53.5271 306.5761 14.56323058436965
